IRIDIUM 144             
1 43249U 18030A   25137.85240129  .00000047  00000+0  97206-5 0  9992
2 43249  86.3939  95.6879 0002424  87.7500 272.3973 14.34217905373490
IRIDIUM 149             
1 43250U 18030B   25138.41689223  .00000075  00000+0  19776-4 0  9995
2 43250  86.3940  95.4231 0002449  86.6557 273.4919 14.34217861373573
IRIDIUM 157             
1 43251U 18030C   25138.43591740  .00000153  00000+0  47625-4 0  9995
2 43251  86.3942  95.4596 0002122  81.1493 278.9943 14.34216973373555
IRIDIUM 140             
1 43252U 18030D   25138.17587352  .00000103  00000+0  29580-4 0  9996
2 43252  86.3943  95.5821 0002430  89.5831 270.5643 14.34218069373574
IRIDIUM 145             
1 43253U 18030E   25137.81434576  .00000153  00000+0  47685-4 0  9997
2 43253  86.3941  95.7062 0002645  87.2469 272.9029 14.34218109373458
IRIDIUM 146             
1 43254U 18030F   25137.86508711  .00000086  00000+0  23671-4 0  9990
2 43254  86.3942  95.6987 0002703  87.2186 272.9319 14.34217865373478
IRIDIUM 148             
1 43255U 18030G   25138.39153528  .00000393  00000+0  13310-3 0  9991
2 43255  86.3943  95.5153 0002403  82.3856 277.7613 14.34222103373595
IRIDIUM 142             
1 43256U 18030H   25138.42957742  .00000147  00000+0  45447-4 0  9990
2 43256  86.3940  95.4029 0002783  84.6160 275.5353 14.34218517373555
